     2.11           N: GPS NAV DATA                         RINEX VERSION / TYPE
RTKCONV 2.4.2       Liu.TY              20181004 132226 UTC PGM / RUN BY / DATE 
log: C:\Users\time0\Desktop\PVT  Project\DataFile\GYM\COM5  COMMENT             
format: u-blox                                              COMMENT             
Antenna in CA548                                            COMMENT             
    1.0245E-08  7.4506E-09 -5.9605E-08 -5.9605E-08          ION ALPHA           
    8.8064E+04  0.0000E+00 -1.9661E+05 -6.5536E+04          ION BETA            
    -.465661287308E-08 -.133226762955E-13  -458752      229 DELTA-UTC: A0,A1,T,W
    18                                                      LEAP SECONDS        
                                                            END OF HEADER       
 3 18 10  4 14  0  0.0  .144737772644E-03  .477484718431E-11  .000000000000E+00
     .670000000000E+02 -.529687500000E+02  .438946855327E-08  .111572728641E+01
    -.275112688541E-05  .179249281064E-02  .114683061838E-04  .515367218781E+04
     .396000000000E+06 -.502914190292E-07  .232155454453E+01  .204890966415E-07
     .961689324323E+00  .157562500000E+03  .661423460428E+00 -.790640076190E-08
     .785747015231E-11  .100000000000E+01  .202100000000E+04  .000000000000E+00
     .240000000000E+01  .000000000000E+00  .186264514923E-08  .670000000000E+02
     .392286000000E+06  .400000000000E+01
18 18 10  4 14  0  0.0  .645201653242E-04  .420641299570E-11  .000000000000E+00
     .112000000000E+03 -.793437500000E+02  .494556314541E-08  .196806550459E+01
    -.444427132607E-05  .149892598856E-01  .391341745853E-05  .515362747002E+04
     .396000000000E+06  .577419996262E-07  .122841720170E+01 -.314787030220E-06
     .950897455187E+00  .297593750000E+03  .135357489776E+01 -.830606026646E-08
    -.118576367753E-09  .100000000000E+01  .202100000000E+04  .000000000000E+00
     .240000000000E+01  .000000000000E+00 -.651925802231E-08  .112000000000E+03
     .392286000000E+06  .400000000000E+01
31 18 10  4 14  0  0.0  .890954397619E-04 -.261479726760E-11  .000000000000E+00
     .460000000000E+02 -.953125000000E+01  .461126350621E-08  .132474555299E+01
    -.281259417534E-06  .892203429248E-02  .650435686111E-05  .515374903870E+04
     .396000000000E+06 -.335276126862E-07 -.183851167972E+01  .158324837685E-06
     .961781365277E+00  .252781250000E+03 -.103839729044E+00 -.813141013444E-08
    -.426803492364E-09  .100000000000E+01  .202100000000E+04  .000000000000E+00
     .240000000000E+01  .000000000000E+00 -.135041773319E-07  .460000000000E+02
     .392286000000E+06  .400000000000E+01
14 18 10  4 14  0  0.0 -.969460234046E-04  .227373675443E-12  .000000000000E+00
     .400000000000E+02  .431250000000E+02  .462269255370E-08 -.216774855152E+01
     .224262475967E-05  .100374417379E-01  .760518014431E-05  .515362924004E+04
     .396000000000E+06  .143423676491E-06 -.283796153098E+01 -.521540641785E-07
     .961166575417E+00  .235125000000E+03 -.194216629404E+01 -.792568727955E-08
     .295369446180E-09  .100000000000E+01  .202100000000E+04  .000000000000E+00
     .240000000000E+01  .000000000000E+00 -.977888703346E-08  .400000000000E+02
     .392286000000E+06  .400000000000E+01
11 18 10  4 14  0  0.0 -.712807755917E-03  .318323145621E-11  .000000000000E+00
     .420000000000E+02 -.302812500000E+02  .611311177850E-08  .154139049868E+01
    -.188499689102E-05  .169668321032E-01  .181235373020E-05  .515365739632E+04
     .396000000000E+06  .262632966042E-06  .842811667860E+00 -.365078449249E-06
     .906757048882E+00  .313187500000E+03  .182425598630E+01 -.896751639020E-08
     .746459664470E-10  .100000000000E+01  .202100000000E+04  .000000000000E+00
     .240000000000E+01  .000000000000E+00 -.121071934700E-07  .420000000000E+02
     .392316000000E+06  .400000000000E+01
19 18 10  4 14  0  0.0 -.396696850657E-03  .352429196937E-11  .000000000000E+00
     .850000000000E+02  .544687500000E+02  .439482591928E-08  .854777575568E+00
     .284053385258E-05  .959276780486E-02  .441633164883E-05  .515360128784E+04
     .396000000000E+06 -.149011611938E-06  .324003013192E+00 -.130385160446E-07
     .981178380418E+00  .307406250000E+03  .129518981820E+01 -.837927760197E-08
     .269296931584E-09  .100000000000E+01  .202100000000E+04  .000000000000E+00
     .240000000000E+01  .000000000000E+00 -.153668224812E-07  .850000000000E+02
     .392316000000E+06  .400000000000E+01
 9 18 10  4 14  0  0.0  .502657610923E-03 -.238742359215E-11  .000000000000E+00
     .520000000000E+02  .359062500000E+02  .496020661252E-08 -.141874456566E+01
     .177323818207E-05  .118811626453E-02  .766664743423E-05  .515380781364E+04
     .396000000000E+06 -.316649675369E-07 -.292881088688E+01  .298023223877E-07
     .953008479623E+00  .226718750000E+03  .169186689892E+01 -.823748598150E-08
     .247510309798E-09  .100000000000E+01  .202100000000E+04  .000000000000E+00
     .340000000000E+01  .000000000000E+00  .931322574615E-09  .520000000000E+02
     .392286000000E+06  .400000000000E+01
23 18 10  4 14  0  0.0 -.209458172321E-03  .909494701773E-12  .000000000000E+00
     .840000000000E+02  .394375000000E+02  .504699594192E-08  .299898248236E+01
     .186264514923E-05  .126290537883E-01  .749900937080E-05  .515371714973E+04
     .396000000000E+06 -.745058059692E-08 -.293166566325E+01 -.150874257088E-06
     .943823368523E+00  .223187500000E+03 -.232473082349E+01 -.808569394447E-08
     .265011038773E-09  .100000000000E+01  .202100000000E+04  .000000000000E+00
     .240000000000E+01  .000000000000E+00 -.200234353542E-07  .840000000000E+02
     .392346000000E+06  .400000000000E+01
 6 18 10  4 14  0  0.0  .354561489075E-03 -.545696821064E-11  .000000000000E+00
     .390000000000E+02 -.931875000000E+02  .459947730098E-08  .247927156272E+01
    -.465475022793E-05  .984131358564E-03  .453367829323E-05  .515371309280E+04
     .396000000000E+06  .726431608200E-07  .127011816431E+01 -.372529029846E-08
     .972136822544E+00  .296000000000E+03 -.114279685044E+01 -.831356057888E-08
    -.220009164265E-09  .100000000000E+01  .202100000000E+04  .000000000000E+00
     .240000000000E+01  .000000000000E+00  .465661287308E-08  .390000000000E+02
     .392346000000E+06  .400000000000E+01
17 18 10  4 14  0  0.0 -.481968745589E-04  .454747350886E-11  .000000000000E+00
     .380000000000E+02  .592500000000E+02  .422303304913E-08 -.190010399066E+01
     .332854688168E-05  .126550514251E-01  .393949449062E-05  .515362294960E+04
     .396000000000E+06  .189989805222E-06  .277307316174E+00  .838190317154E-07
     .983574537827E+00  .312406250000E+03 -.177235385308E+01 -.802104839458E-08
     .396087927223E-09  .100000000000E+01  .202100000000E+04  .000000000000E+00
     .240000000000E+01  .000000000000E+00 -.111758708954E-07  .380000000000E+02
     .392376000000E+06  .400000000000E+01
 1 18 10  4 13 59 44.0 -.961413607001E-04 -.477484718431E-11  .000000000000E+00
     .200000000000E+01 -.809375000000E+02  .456018995022E-08  .218678343592E+01
    -.427104532719E-05  .813458440825E-02  .500865280628E-05  .515366330338E+04
     .395984000000E+06 -.214204192162E-06  .127843359548E+01 -.102445483208E-06
     .972440916399E+00  .289531250000E+03  .697594068976E+00 -.815891127998E-08
    -.121076471892E-09  .100000000000E+01  .202100000000E+04  .000000000000E+00
     .240000000000E+01  .000000000000E+00  .558793544769E-08  .200000000000E+01
     .392526000000E+06  .400000000000E+01
22 18 10  4 14  0  0.0 -.537515152246E-03 -.105728759081E-10  .000000000000E+00
     .730000000000E+02 -.573437500000E+02  .516057210140E-08 -.265842774776E+01
    -.301562249660E-05  .703101651743E-02  .107958912849E-04  .515370165634E+04
     .396000000000E+06  .540167093277E-07  .225718916266E+01  .391155481339E-07
     .925860390533E+00  .148968750000E+03 -.147538197160E+01 -.815212528303E-08
     .189293599124E-10  .100000000000E+01  .202100000000E+04  .000000000000E+00
     .240000000000E+01  .000000000000E+00 -.181607902050E-07  .730000000000E+02
     .393096000000E+06  .400000000000E+01
